[{"OBJECT_NAME":"TIANMU-1 11","OBJECT_ID":"2023-205A","EPOCH":"2026-03-10T00:04:04.804896","MEAN_MOTION":15.25886825,"ECCENTRICITY":0.00089558,"INCLINATION":97.3549,"RA_OF_ASC_NODE":92.1484,"ARG_OF_PERICENTER":7.2987,"MEAN_ANOMALY":352.838,"EPHEMERIS_TYPE":0,"CLASSIFICATION_TYPE":"U","NORAD_CAT_ID":58645,"ELEMENT_SET_NO":999,"REV_AT_EPOCH":12239,"BSTAR":0.00031315232,"MEAN_MOTION_DOT":7.963e-5,"MEAN_MOTION_DDOT":0},{"OBJECT_NAME":"STARLINK-32950","OBJECT_ID":"2025-075U","EPOCH":"2026-03-09T21:41:44.354976","MEAN_MOTION":15.27601366,"ECCENTRICITY":0.00017328,"INCLINATION":42.9998,"RA_OF_ASC_NODE":269.058,"ARG_OF_PERICENTER":259.9137,"MEAN_ANOMALY":100.152,"EPHEMERIS_TYPE":0,"CLASSIFICATION_TYPE":"U","NORAD_CAT_ID":63566,"ELEMENT_SET_NO":999,"REV_AT_EPOCH":5196,"BSTAR":0.001339917,"MEAN_MOTION_DOT":0.00036818,"MEAN_MOTION_DDOT":0}]
